[{"OBJECT_NAME":"STARLINK-3374","OBJECT_ID":"2022-005J","EPOCH":"2026-03-09T21:28:49.885248","MEAN_MOTION":15.08858562,"ECCENTRICITY":0.00013555,"INCLINATION":53.2171,"RA_OF_ASC_NODE":288.1695,"ARG_OF_PERICENTER":94.1755,"MEAN_ANOMALY":265.9393,"EPHEMERIS_TYPE":0,"CLASSIFICATION_TYPE":"U","NORAD_CAT_ID":51112,"ELEMENT_SET_NO":999,"REV_AT_EPOCH":22891,"BSTAR":0.00015547156,"MEAN_MOTION_DOT":2.188e-5,"MEAN_MOTION_DDOT":0},{"OBJECT_NAME":"CZ-4C R\/B","OBJECT_ID":"2021-026B","EPOCH":"2026-03-09T16:37:41.696544","MEAN_MOTION":15.16445633,"ECCENTRICITY":0.00393855,"INCLINATION":97.7468,"RA_OF_ASC_NODE":117.371,"ARG_OF_PERICENTER":22.5612,"MEAN_ANOMALY":337.7341,"EPHEMERIS_TYPE":0,"CLASSIFICATION_TYPE":"U","NORAD_CAT_ID":48080,"ELEMENT_SET_NO":999,"REV_AT_EPOCH":27175,"BSTAR":0.00026802982,"MEAN_MOTION_DOT":5.244e-5,"MEAN_MOTION_DDOT":0}]
